OBJECT_NAME,OBJECT_ID,EPOCH,MEAN_MOTION,ECCENTRICITY,INCLINATION,RA_OF_ASC_NODE,ARG_OF_PERICENTER,MEAN_ANOMALY,EPHEMERIS_TYPE,CLASSIFICATION_TYPE,NORAD_CAT_ID,ELEMENT_SET_NO,REV_AT_EPOCH,BSTAR,MEAN_MOTION_DOT,MEAN_MOTION_DDOT
LEMUR-1,2014-033AL,2026-07-17T04:55:23.351232,14.85340073,.00475615,97.7912,347.3507,341.2591,18.6872,0,U,40044,999,64992,.89273057E-4,.727E-5,0
LEMUR-2-GREENBERG,2017-042N,2026-07-17T00:08:54.935232,15.32187524,.00072594,97.3832,18.5143,251.9389,108.1062,0,U,42837,999,49295,.29799908E-3,.9191E-4,0
LEMUR-2-ANDIS,2017-042P,2026-07-16T10:38:27.258720,15.35956970,.0007241,97.3681,18.2427,252.8330,107.2121,0,U,42838,999,49294,.37176E-3,.12949E-3,0
LEMUR-2-MONSON,2017-042Q,2026-07-16T11:47:23.784864,15.28773757,.0005395,97.4090,17.9272,239.7069,120.3638,0,U,42839,999,49264,.28284E-3,.7839E-4,0
LEMUR-2-FURIAUS,2017-042R,2026-07-16T11:56:24.813888,15.31157870,.0005913,97.3778,15.8960,324.3797,35.7049,0,U,42840,999,49269,.33733E-3,.10084E-3,0
LEMUR-2-PETERG,2017-042S,2026-07-16T23:11:42.391104,15.35069947,.00034275,97.3994,23.0718,212.2354,147.8680,0,U,42841,999,49300,.33162146E-3,.1121E-3,0
LEMUR-2-DEMBITZ,2017-042T,2026-07-17T05:40:03.762624,15.31146418,.0005078,97.3830,19.6761,264.8229,95.2433,0,U,42842,999,49294,.29729266E-3,.8872E-4,0
LEMUR-2-ZACHARY,2017-042W,2026-07-17T07:23:08.591712,15.52848378,.00026638,97.3571,30.6406,235.0924,125.0078,0,U,42845,999,49387,.48060548E-3,.29777E-3,0
LEMUR-2-AMANDA-SVANTE,2021-034B,2026-07-16T18:05:20.662368,15.36021211,.00046563,97.5750,276.8554,139.3805,220.7786,0,U,48269,999,28559,.56091595E-3,.19624E-3,0
LEMUR-2-SPECIAL-K,2021-034F,2026-07-17T01:10:21.312192,15.75386170,.00062926,97.5641,287.3062,212.8782,147.2092,0,U,48273,999,28637,.12202358E-2,.187699E-2,0
LEMUR-2-EMBRIONOVIS,2023-084AQ,2026-07-17T04:43:03.330912,15.38262005,.00085153,97.6328,343.5695,198.7733,161.3198,0,U,56970,999,17229,.20547227E-3,.7666E-4,0
LEMUR-2-DEVERILL-M-T,2023-100F,2026-07-17T02:43:47.520480,15.41151764,.00047268,99.4448,245.5500,288.8996,71.1731,0,U,57391,999,16585,.36984915E-3,.15224E-3,0
LEMUR-2-BASS,2023-174D,2026-07-17T05:23:44.549088,15.44036635,.00075316,97.3844,283.3766,71.9840,288.2229,0,U,58259,999,14999,.21900035E-3,.9915E-4,0
LEMUR-2-JK0903EM1407,2023-174CJ,2026-07-16T19:03:31.438368,15.53123709,.00034787,97.3923,289.1304,27.1565,332.9869,0,U,58336,999,15032,.28238283E-3,.17604E-3,0
LEMUR-2-MJR092620,2023-174CN,2026-07-17T04:51:40.856544,15.45908152,.00051509,97.3975,288.8070,23.4875,336.6608,0,U,58340,999,15028,.22283958E-3,.10751E-3,0
LEMUR-2-NIMBUS2000,2024-022A,2026-07-16T13:36:37.589472,15.41153193,.00086176,97.4075,47.9572,24.2441,335.9209,0,U,58899,999,13679,.31937662E-3,.13172E-3,0
LEMUR-2-VALHALLA,2024-022B,2026-07-16T19:58:34.660704,15.40519232,.00090434,97.4076,48.1944,18.4869,341.6704,0,U,58900,999,13683,.23769484E-3,.9575E-4,0
LEMUR-2-CAEL,2024-022E,2026-07-17T00:16:06.845376,15.41893373,.00069123,97.4055,49.3652,3.1260,357.0029,0,U,58903,999,13693,.24001525E-3,.10116E-3,0
LEMUR-2-JOHNNYTRUONG,2024-043BA,2026-07-16T22:43:33.492288,15.62657592,.00040088,97.5398,351.5472,89.6727,270.4990,0,U,59146,999,13268,.28537315E-3,.25455E-3,0
LEMUR-2-TOMATOKECHUP,2024-149D,2026-07-16T11:34:09.058656,15.36597838,.0003348,97.3796,279.6140,120.3105,239.8471,0,U,60471,999,10666,.16419E-3,.5784E-4,0
LEMUR-2-STELLA,2024-149BT,2026-07-17T04:34:57.477792,15.12393884,.00012249,97.6732,280.7889,121.9085,238.2264,0,U,60533,999,10503,.34171112E-3,.5866E-4,0
LEMUR-2-MARHISYAM,2024-149BW,2026-07-17T04:22:59.882592,15.11799755,.00022914,97.6875,281.2593,66.0951,294.0519,0,U,60536,999,10501,.34433031E-3,.5814E-4,0
LEMUR-2-AHMED-ASRAR,2024-149DN,2026-07-17T04:29:28.680864,15.13331428,.00013809,97.7002,283.4749,197.8671,162.2511,0,U,60576,999,10510,.36384492E-3,.6416E-4,0
LEMUR-2-LLOYD,2024-149DP,2026-07-16T17:44:34.201536,15.09766834,.00046627,97.6742,278.8938,68.7194,291.4532,0,U,60577,999,10485,.30078377E-3,.4792E-4,0
LEMUR-2-SQUIRRELCOMM,2024-149DQ,2026-07-17T04:40:39.992448,15.07456450,.00040394,97.6704,279.0168,318.1739,41.9179,0,U,60578,999,10492,.16298138E-3,.2407E-4,0
LEMUR-2-SIERRINI,2024-149DR,2026-07-16T22:43:47.265312,15.11533947,.00064239,97.6838,280.6818,86.4880,273.7085,0,U,60579,999,10495,.34313064E-3,.5753E-4,0
LEMUR-2-WILSON,2025-009CP,2026-07-16T17:47:00.235680,14.95279131,.00019037,97.7019,275.6876,316.2557,43.8513,0,U,62694,999,8177,.77175257E-4,.793E-5,0
LEMUR-2-STAR-FOX,2025-009CR,2026-07-17T04:34:53.327136,15.02855199,.00019867,97.6903,279.5841,34.7534,325.3820,0,U,62696,999,8206,.26998749E-3,.3558E-4,0
LEMUR-2-ARIANNA,2025-009CU,2026-07-17T04:32:40.632288,15.02857687,.00023394,97.6845,279.3334,42.8979,317.2428,0,U,62699,999,8206,.28272678E-3,.3729E-4,0
LEMUR-2-ALISIA,2025-009DB,2026-07-17T00:40:32.325888,15.03191133,.00045387,97.6968,280.0020,123.9243,236.2414,0,U,62706,999,10464,.3126833E-3,.4168E-4,0
